NORAD_CAT_ID,OBJECT_NAME,OBJECT_TYPE,EPOCH,MEAN_MOTION,ECCENTRICITY,INCLINATION,RA_OF_ASC_NODE,ARG_OF_PERICENTER,MEAN_ANOMALY,BSTAR,MEAN_MOTION_DOT,MEAN_MOTION_DDOT,TLE_LINE0,TLE_LINE1,TLE_LINE2,SEMIMAJOR_AXIS,PERIOD,APOGEE,PERIGEE,DECAYED
53620.0,STARLINK-4615,PAYLOAD,2023-03-06 03:30:57,15.08857863,0.0001414,53.2178,130.004,106.8,253.3148,0.0013438,0.00021174,0.0,0 STARLINK-4615,1 53620U 22104AJ  23065.14649738  .00021174  00000-0  13438-2 0  9999,2 53620  53.2178 130.0040 0001414 106.8000 253.3148 15.08857863 29072,6917.826,95.436,540.669,538.713,0.0
53620.0,STARLINK-4615,PAYLOAD,2023-03-06 14:38:38,15.08888743,0.0001245,53.2157,127.9216,100.573,259.5402,0.0021582,0.00034273,0.0,0 STARLINK-4615,1 53620U 22104AJ  23065.61016647  .00034273  00000-0  21582-2 0  9991,2 53620  53.2157 127.9216 0001245 100.5730 259.5402 15.08888743 29142,6917.731,95.434,540.458,538.735,0.0
53620.0,STARLINK-4615,PAYLOAD,2023-03-06 21:00:11,15.08855713,0.0001977,53.2153,126.7316,77.3237,282.7976,0.00034381,5.19e-05,0.0,0 STARLINK-4615,1 53620U 22104AJ  23065.87513149  .00005190  00000-0  34381-3 0  9996,2 53620  53.2153 126.7316 0001977  77.3237 282.7976 15.08855713 29865,6917.832,95.437,541.065,538.33,0.0
53620.0,STARLINK-4615,PAYLOAD,2023-03-07 09:43:17,15.08824737,0.0001574,53.2166,124.3547,81.1967,278.9204,0.00085566,0.0001335,0.0,0 STARLINK-4615,1 53620U 22104AJ  23066.40505941  .00013350  00000-0  85566-3 0  9995,2 53620  53.2166 124.3547 0001574  81.1967 278.9204 15.08824737 29262,6917.927,95.439,540.881,538.703,0.0
53620.0,STARLINK-4615,PAYLOAD,2023-03-07 16:04:49,15.08845123,0.0001763,53.2171,123.1618,75.9137,284.205,0.002226,0.00035322,0.0,0 STARLINK-4615,1 53620U 22104AJ  23066.67001967  .00035322  00000-0  22260-2 0  9997,2 53620  53.2171 123.1618 0001763  75.9137 284.2050 15.08845123 29300,6917.865,95.437,540.949,538.51,0.0
53620.0,STARLINK-4615,PAYLOAD,2023-03-07 20:50:59,15.08828867,8.18e-05,53.2159,122.2715,119.6356,240.4718,-2.0261e-05,-6.1e-06,0.0,0 STARLINK-4615,1 53620U 22104AJ  23066.86873886 -.00000610  00000-0 -20261-4 0  9990,2 53620  53.2159 122.2715 0000818 119.6356 240.4718 15.08828867 30014,6917.914,95.438,540.345,539.214,0.0
53620.0,STARLINK-4615,PAYLOAD,2023-03-08 03:12:31,15.08835967,0.0001049,53.2156,121.0817,114.5995,245.5107,0.0012419,0.0001953,0.0,0 STARLINK-4615,1 53620U 22104AJ  23067.13370298  .00019530  00000-0  12419-2 0  9993,2 53620  53.2156 121.0817 0001049 114.5995 245.5107 15.08835967 29375,6917.893,95.438,540.483,539.032,0.0
53620.0,STARLINK-4615,PAYLOAD,2023-03-08 20:41:46,15.08869855,0.0001043,53.2157,117.8105,105.2594,254.8513,0.0024529,0.00038998,0.0,0 STARLINK-4615,1 53620U 22104AJ  23067.86234206  .00038998  00000-0  24529-2 0  9995,2 53620  53.2157 117.8105 0001043 105.2594 254.8513 15.08869855 30161,6917.789,95.436,540.376,538.933,0.0
53620.0,STARLINK-4615,PAYLOAD,2023-03-09 12:35:37,15.08891284,0.0001352,53.2154,114.8363,105.1704,254.9438,0.0035881,0.00057362,0.0,0 STARLINK-4615,1 53620U 22104AJ  23068.52473659  .00057362  00000-0  35881-2 0  9995,2 53620  53.2154 114.8363 0001352 105.1704 254.9438 15.08891284 29588,6917.724,95.434,540.524,538.653,0.0
53620.0,STARLINK-4615,PAYLOAD,2023-03-09 20:32:33,15.08863728,0.0002407,53.2156,113.3492,84.3143,275.8123,0.0018874,0.00029898,0.0,0 STARLINK-4615,1 53620U 22104AJ  23068.85594151  .00029898  00000-0  18874-2 0  9998,2 53620  53.2156 113.3492 0002407  84.3143 275.8123 15.08863728 30312,6917.808,95.436,541.338,538.008,0.0
53620.0,STARLINK-4615,PAYLOAD,2023-03-10 09:15:37,15.08878496,0.0001219,53.2156,110.9704,86.3675,273.7457,0.0025472,0.00040527,0.0,0 STARLINK-4615,1 53620U 22104AJ  23069.38585195  .00040527  00000-0  25472-2 0  9999,2 53620  53.2156 110.9704 0001219  86.3675 273.7457 15.08878496 29710,6917.763,95.435,540.471,538.784,0.0
53620.0,STARLINK-4615,PAYLOAD,2023-03-10 12:26:23,15.08877906,0.0001167,53.2157,110.3754,84.7808,275.3317,0.002483,0.00039492,0.0,0 STARLINK-4615,1 53620U 22104AJ  23069.51832998  .00039492  00000-0  24830-2 0  9996,2 53620  53.2157 110.3754 0001167  84.7808 275.3317 15.08877906 29732,6917.765,95.435,540.437,538.822,0.0
53620.0,STARLINK-4615,PAYLOAD,2023-03-11 02:44:52,15.08839806,0.0001001,53.2165,107.6985,108.8816,251.2284,0.00098164,0.00015369,0.0,0 STARLINK-4615,1 53620U 22104AJ  23070.11449820  .00015369  00000-0  98164-3 0  9991,2 53620  53.2165 107.6985 0001001 108.8816 251.2284 15.08839806 29823,6917.881,95.438,540.438,539.054,0.0
53620.0,STARLINK-4615,PAYLOAD,2023-03-11 07:31:02,15.08827595,9.37e-05,53.2159,106.8052,80.0829,280.0269,0.0012676,0.00019937,0.0,0 STARLINK-4615,1 53620U 22104AJ  23070.31322282  .00019937  00000-0  12676-2 0  9993,2 53620  53.2159 106.8052 0000937  80.0829 280.0269 15.08827595 29852,6917.918,95.438,540.432,539.135,0.0
53620.0,STARLINK-4615,PAYLOAD,2023-03-11 09:06:25,15.08824507,0.0001362,53.2165,106.5068,115.6765,244.4368,0.00067931,0.00010535,0.0,0 STARLINK-4615,1 53620U 22104AJ  23070.37946282  .00010535  00000-0  67931-3 0  9991,2 53620  53.2165 106.5068 0001362 115.6765 244.4368 15.08824507 30542,6917.928,95.439,540.735,538.851,0.0
53620.0,STARLINK-4615,PAYLOAD,2023-03-11 13:52:34,15.08835336,0.0001379,53.2173,105.6142,113.6464,246.4673,0.00042321,6.453e-05,0.0,0 STARLINK-4615,1 53620U 22104AJ  23070.57818274  .00006453  00000-0  42321-3 0  9992,2 53620  53.2173 105.6142 0001379 113.6464 246.4673 15.08835336 30572,6917.895,95.438,540.714,538.806,0.0
53620.0,STARLINK-4615,PAYLOAD,2023-03-12 02:35:40,15.08825304,0.0001547,53.2167,103.2372,106.1321,253.9841,0.0008541,0.00013326,0.0,0 STARLINK-4615,1 53620U 22104AJ  23071.10811215  .00013326  00000-0  85410-3 0  9993,2 53620  53.2167 103.2372 0001547 106.1321 253.9841 15.08825304 29976,6917.925,95.438,540.861,538.72,0.0
53620.0,STARLINK-4615,PAYLOAD,2023-03-12 05:46:27,15.08835573,0.0001962,53.216,102.6428,120.1404,239.9783,0.00059128,9.134e-05,0.0,0 STARLINK-4615,1 53620U 22104AJ  23071.24059081  .00009134  00000-0  59128-3 0  9992,2 53620  53.2160 102.6428 0001962 120.1404 239.9783 15.08835573 30670,6917.894,95.438,541.116,538.402,0.0
53620.0,STARLINK-4615,PAYLOAD,2023-03-12 08:57:13,15.0883417,0.0001548,53.2167,102.0496,106.8516,253.2646,0.0011123,0.00017456,0.0,0 STARLINK-4615,1 53620U 22104AJ  23071.37307318  .00017456  00000-0  11123-2 0  9993,2 53620  53.2167 102.0496 0001548 106.8516 253.2646 15.08834170 30692,6917.898,95.438,540.834,538.692,0.0
53620.0,STARLINK-4615,PAYLOAD,2023-03-13 00:51:04,15.08850464,0.0001478,53.2167,99.0763,107.965,252.1503,0.00066656,0.00010339,0.0,0 STARLINK-4615,1 53620U 22104AJ  23072.03546959  .00010339  00000-0  66656-3 0  9998,2 53620  53.2167  99.0763 0001478 107.9650 252.1503 15.08850464 30792,6917.848,95.437,540.736,538.691,0.0
53620.0,STARLINK-4615,PAYLOAD,2023-03-14 05:28:00,15.08854931,0.0001322,53.2171,93.7232,104.0507,256.0632,0.00023122,3.395e-05,0.0,0 STARLINK-4615,1 53620U 22104AJ  23073.22778010  .00003395  00000-0  23122-3 0  9990,2 53620  53.2171  93.7232 0001322 104.0507 256.0632 15.08854931 30290,6917.835,95.437,540.614,538.785,0.0
53620.0,STARLINK-4615,PAYLOAD,2023-03-14 08:38:46,15.08857182,0.0001261,53.217,93.1285,100.5029,259.6106,0.00026522,3.938e-05,0.0,0 STARLINK-4615,1 53620U 22104AJ  23073.36025845  .00003938  00000-0  26522-3 0  9996,2 53620  53.2170  93.1285 0001261 100.5029 259.6106 15.08857182 30996,6917.828,95.436,540.565,538.821,0.0
53620.0,STARLINK-4615,PAYLOAD,2023-03-14 18:11:05,15.088548,0.000118,53.2168,91.3439,69.3393,290.7725,0.00019297,2.786e-05,0.0,0 STARLINK-4615,1 53620U 22104AJ  23073.75769705  .00002786  00000-0  19297-3 0  9990,2 53620  53.2168  91.3439 0001180  69.3393 290.7725 15.08854800 31055,6917.835,95.437,540.516,538.884,0.0
53620.0,STARLINK-4615,PAYLOAD,2023-03-15 10:04:56,15.08846412,0.0001516,53.218,88.3707,76.4715,283.6446,7.7261e-05,9.42e-06,0.0,0 STARLINK-4615,1 53620U 22104AJ  23074.42009975  .00000942  00000-0  77261-4 0  9999,2 53620  53.2180  88.3707 0001516  76.4715 283.6446 15.08846412 30479,6917.861,95.437,540.775,538.677,0.0
53620.0,STARLINK-4615,PAYLOAD,2023-03-15 13:15:42,15.08855349,0.0001489,53.2176,87.7753,77.8105,282.3054,0.00033539,5.056e-05,0.0,0 STARLINK-4615,1 53620U 22104AJ  23074.55257690  .00005056  00000-0  33539-3 0  9992,2 53620  53.2176  87.7753 0001489  77.8105 282.3054 15.08855349 31173,6917.833,95.437,540.729,538.668,0.0
53620.0,STARLINK-4615,PAYLOAD,2023-03-16 05:09:34,15.08832521,0.0001377,53.2162,84.8023,86.9874,273.1276,8.269e-05,1.028e-05,0.0,0 STARLINK-4615,1 53620U 22104AJ  23075.21498510  .00001028  00000-0  82690-4 0  9992,2 53620  53.2162  84.8023 0001377  86.9874 273.1276 15.08832521 30592,6917.903,95.438,540.721,538.816,0.0
53620.0,STARLINK-4615,PAYLOAD,2023-03-16 13:06:30,15.08848052,0.0001329,53.2168,83.3151,89.7817,270.3328,0.00064683,0.00010024,0.0,0 STARLINK-4615,1 53620U 22104AJ  23075.54618330  .00010024  00000-0  64683-3 0  9999,2 53620  53.2168  83.3151 0001329  89.7817 270.3328 15.08848052 31324,6917.856,95.437,540.64,538.801,0.0
53620.0,STARLINK-4615,PAYLOAD,2023-03-16 17:52:39,15.08832753,4.64e-05,53.2171,82.4232,143.6862,216.4162,0.00015711,2.213e-05,0.0,0 STARLINK-4615,1 53620U 22104AJ  23075.74490454  .00002213  00000-0  15711-3 0  9995,2 53620  53.2171  82.4232 0000464 143.6862 216.4162 15.08832753 31358,6917.903,95.438,540.089,539.447,0.0
53620.0,STARLINK-4615,PAYLOAD,2023-03-17 06:35:45,15.08830589,0.0001246,53.2172,80.0442,98.5958,261.5176,0.00045281,6.924e-05,0.0,0 STARLINK-4615,1 53620U 22104AJ  23076.27483350  .00006924  00000-0  45281-3 0  9999,2 53620  53.2172  80.0442 0001246  98.5958 261.5176 15.08830589 30753,6917.909,95.438,540.636,538.912,0.0
53620.0,STARLINK-4615,PAYLOAD,2023-03-17 11:21:55,15.088363,0.0001247,53.2169,79.1526,96.9523,263.1611,0.00053689,8.266e-05,0.0,0 STARLINK-4615,1 53620U 22104AJ  23076.47355452  .00008266  00000-0  53689-3 0  9994,2 53620  53.2169  79.1526 0001247  96.9523 263.1611 15.08836300 31460,6917.892,95.438,540.619,538.894,0.0
